STARLINK-35722          
1 66218U 25244N   26088.16969703  .00037207  00000+0  12613-2 0  9998
2 66218  53.1575 139.3128 0001319  88.4542 271.6610 15.30219337 24646
STARLINK-35737          
1 66219U 25244P   26088.16758681  .00031658  00000+0  10759-2 0  9993
2 66219  53.1581 139.3014 0001620  98.8230 261.2954 15.30216655 24648
STARLINK-35677          
1 66220U 25244Q   26088.15808969  .00026127  00000+0  89087-3 0  9995
2 66220  53.1581 139.2374 0001387  79.6177 280.4980 15.30210766 24644
STARLINK-35704          
1 66221U 25244R   26088.12125463  .00020757  00000+0  71013-3 0  9997
2 66221  53.1597 139.7176 0001430  82.8193 277.2970 15.30239890 24631
STARLINK-35666          
1 66222U 25244S   26088.12442647  .00020586  00000+0  70536-3 0  9993
2 66222  53.1582 139.7375 0002127  81.2496 278.8745 15.30194397 24639
STARLINK-35664          
1 66223U 25244T   26087.86950874  .00024123  00000+0  82371-3 0  9991
2 66223  53.1583 140.9880 0001953  91.0379 269.0846 15.30208605 24598
STARLINK-35733          
1 66224U 25244U   26087.55665226  .00025341  00000+0  86472-3 0  9991
2 66224  53.1592 142.5932 0001245  83.3055 276.8087 15.30202515 24546
STARLINK-35734          
1 66225U 25244V   26087.53976509  .00019196  00000+0  65823-3 0  9997
2 66225  53.1598 142.4862 0001321  82.7243 277.3908 15.30216704 24544
STARLINK-34466          
1 66226U 25244W   26087.85051188  .00016412  00000+0  56496-3 0  9994
2 66226  53.1597 140.8699 0001436  80.5838 279.5325 15.30203668 24594
STARLINK-34882          
1 66227U 25244X   26088.10860198  .00021572  00000+0  73810-3 0  9995
2 66227  53.1577 139.6374 0001276  73.5796 286.5345 15.30210257 24633
STARLINK-35731          
1 66228U 25244Y   26088.17075144  .00030548  00000+0  10386-2 0  9993
2 66228  53.1569 139.3152 0001748 107.1514 252.9678 15.30219896 24647
STARLINK-35758          
1 66229U 25244Z   26088.16864267  .00031975  00000+0  10866-2 0  9993
2 66229  53.1577 139.3000 0001155  73.4678 286.6449 15.30214746 24646
STARLINK-35736          
1 66230U 25244AA  26087.85895436  .00021685  00000+0  74190-3 0  9990
2 66230  53.1608 140.9199 0001481  86.4990 273.6180 15.30210890 24591
STARLINK-35735          
1 66231U 25244AB  26088.16230995  .00034729  00000+0  11785-2 0  9992
2 66231  53.1575 139.2605 0001855  91.2476 268.8737 15.30219261 24647
STARLINK-35753          
1 66232U 25244AC  26087.55875280  .00028250  00000+0  96297-3 0  9991
2 66232  53.1594 142.6042 0001308  81.3966 278.7183 15.30177268 24543
STARLINK-35626          
1 66233U 25244AD  26088.14342899  .00035303  00000+0  11979-2 0  9993
2 66233  53.1595 139.8515 0001732  94.6088 265.5110 15.30214398 24631
