[{"OBJECT_NAME":"STARLINK-35722","OBJECT_ID":"2025-244N","EPOCH":"2026-03-29T04:04:21.823392","MEAN_MOTION":15.30219337,"ECCENTRICITY":0.0001319,"INCLINATION":53.1575,"RA_OF_ASC_NODE":139.3128,"ARG_OF_PERICENTER":88.4542,"MEAN_ANOMALY":271.661,"EPHEMERIS_TYPE":0,"CLASSIFICATION_TYPE":"U","NORAD_CAT_ID":66218,"ELEMENT_SET_NO":999,"REV_AT_EPOCH":2464,"BSTAR":0.0012613,"MEAN_MOTION_DOT":0.00037207,"MEAN_MOTION_DDOT":0},{"OBJECT_NAME":"STARLINK-35737","OBJECT_ID":"2025-244P","EPOCH":"2026-03-29T04:01:19.500384","MEAN_MOTION":15.30216655,"ECCENTRICITY":0.000162,"INCLINATION":53.1581,"RA_OF_ASC_NODE":139.3014,"ARG_OF_PERICENTER":98.823,"MEAN_ANOMALY":261.2954,"EPHEMERIS_TYPE":0,"CLASSIFICATION_TYPE":"U","NORAD_CAT_ID":66219,"ELEMENT_SET_NO":999,"REV_AT_EPOCH":2464,"BSTAR":0.0010759,"MEAN_MOTION_DOT":0.00031658,"MEAN_MOTION_DDOT":0},{"OBJECT_NAME":"STARLINK-35677","OBJECT_ID":"2025-244Q","EPOCH":"2026-03-29T03:47:38.949216","MEAN_MOTION":15.30210766,"ECCENTRICITY":0.0001387,"INCLINATION":53.1581,"RA_OF_ASC_NODE":139.2374,"ARG_OF_PERICENTER":79.6177,"MEAN_ANOMALY":280.498,"EPHEMERIS_TYPE":0,"CLASSIFICATION_TYPE":"U","NORAD_CAT_ID":66220,"ELEMENT_SET_NO":999,"REV_AT_EPOCH":2464,"BSTAR":0.00089087,"MEAN_MOTION_DOT":0.00026127,"MEAN_MOTION_DDOT":0},{"OBJECT_NAME":"STARLINK-35704","OBJECT_ID":"2025-244R","EPOCH":"2026-03-29T02:54:36.400032","MEAN_MOTION":15.3023989,"ECCENTRICITY":0.000143,"INCLINATION":53.1597,"RA_OF_ASC_NODE":139.7176,"ARG_OF_PERICENTER":82.8193,"MEAN_ANOMALY":277.297,"EPHEMERIS_TYPE":0,"CLASSIFICATION_TYPE":"U","NORAD_CAT_ID":66221,"ELEMENT_SET_NO":999,"REV_AT_EPOCH":2463,"BSTAR":0.00071013,"MEAN_MOTION_DOT":0.00020757,"MEAN_MOTION_DDOT":0},{"OBJECT_NAME":"STARLINK-35666","OBJECT_ID":"2025-244S","EPOCH":"2026-03-29T02:59:10.447008","MEAN_MOTION":15.30194397,"ECCENTRICITY":0.0002127,"INCLINATION":53.1582,"RA_OF_ASC_NODE":139.7375,"ARG_OF_PERICENTER":81.2496,"MEAN_ANOMALY":278.8745,"EPHEMERIS_TYPE":0,"CLASSIFICATION_TYPE":"U","NORAD_CAT_ID":66222,"ELEMENT_SET_NO":999,"REV_AT_EPOCH":2463,"BSTAR":0.00070536,"MEAN_MOTION_DOT":0.00020586,"MEAN_MOTION_DDOT":0},{"OBJECT_NAME":"STARLINK-35664","OBJECT_ID":"2025-244T","EPOCH":"2026-03-28T20:52:05.555136","MEAN_MOTION":15.30208605,"ECCENTRICITY":0.00019538,"INCLINATION":53.1583,"RA_OF_ASC_NODE":140.988,"ARG_OF_PERICENTER":91.0379,"MEAN_ANOMALY":269.0846,"EPHEMERIS_TYPE":0,"CLASSIFICATION_TYPE":"U","NORAD_CAT_ID":66223,"ELEMENT_SET_NO":999,"REV_AT_EPOCH":2459,"BSTAR":0.00082370915,"MEAN_MOTION_DOT":0.00024123,"MEAN_MOTION_DDOT":0},{"OBJECT_NAME":"STARLINK-35733","OBJECT_ID":"2025-244U","EPOCH":"2026-03-28T13:21:34.755264","MEAN_MOTION":15.30202515,"ECCENTRICITY":0.0001245,"INCLINATION":53.1592,"RA_OF_ASC_NODE":142.5932,"ARG_OF_PERICENTER":83.3055,"MEAN_ANOMALY":276.8087,"EPHEMERIS_TYPE":0,"CLASSIFICATION_TYPE":"U","NORAD_CAT_ID":66224,"ELEMENT_SET_NO":999,"REV_AT_EPOCH":2454,"BSTAR":0.00086472,"MEAN_MOTION_DOT":0.00025341,"MEAN_MOTION_DDOT":0},{"OBJECT_NAME":"STARLINK-35734","OBJECT_ID":"2025-244V","EPOCH":"2026-03-28T12:57:15.703776","MEAN_MOTION":15.30216704,"ECCENTRICITY":0.0001321,"INCLINATION":53.1598,"RA_OF_ASC_NODE":142.4862,"ARG_OF_PERICENTER":82.7243,"MEAN_ANOMALY":277.3908,"EPHEMERIS_TYPE":0,"CLASSIFICATION_TYPE":"U","NORAD_CAT_ID":66225,"ELEMENT_SET_NO":999,"REV_AT_EPOCH":2454,"BSTAR":0.00065823,"MEAN_MOTION_DOT":0.00019196,"MEAN_MOTION_DDOT":0},{"OBJECT_NAME":"STARLINK-34466","OBJECT_ID":"2025-244W","EPOCH":"2026-03-28T20:24:44.226432","MEAN_MOTION":15.30203668,"ECCENTRICITY":0.00014363,"INCLINATION":53.1597,"RA_OF_ASC_NODE":140.8699,"ARG_OF_PERICENTER":80.5838,"MEAN_ANOMALY":279.5325,"EPHEMERIS_TYPE":0,"CLASSIFICATION_TYPE":"U","NORAD_CAT_ID":66226,"ELEMENT_SET_NO":999,"REV_AT_EPOCH":2459,"BSTAR":0.00056495583,"MEAN_MOTION_DOT":0.00016412,"MEAN_MOTION_DDOT":0},{"OBJECT_NAME":"STARLINK-34882","OBJECT_ID":"2025-244X","EPOCH":"2026-03-29T02:36:23.211072","MEAN_MOTION":15.30210257,"ECCENTRICITY":0.0001276,"INCLINATION":53.1577,"RA_OF_ASC_NODE":139.6374,"ARG_OF_PERICENTER":73.5796,"MEAN_ANOMALY":286.5345,"EPHEMERIS_TYPE":0,"CLASSIFICATION_TYPE":"U","NORAD_CAT_ID":66227,"ELEMENT_SET_NO":999,"REV_AT_EPOCH":2463,"BSTAR":0.0007381,"MEAN_MOTION_DOT":0.00021572,"MEAN_MOTION_DDOT":0},{"OBJECT_NAME":"STARLINK-35731","OBJECT_ID":"2025-244Y","EPOCH":"2026-03-29T04:05:52.924416","MEAN_MOTION":15.30219896,"ECCENTRICITY":0.0001748,"INCLINATION":53.1569,"RA_OF_ASC_NODE":139.3152,"ARG_OF_PERICENTER":107.1514,"MEAN_ANOMALY":252.9678,"EPHEMERIS_TYPE":0,"CLASSIFICATION_TYPE":"U","NORAD_CAT_ID":66228,"ELEMENT_SET_NO":999,"REV_AT_EPOCH":2464,"BSTAR":0.0010386,"MEAN_MOTION_DOT":0.00030548,"MEAN_MOTION_DDOT":0},{"OBJECT_NAME":"STARLINK-35758","OBJECT_ID":"2025-244Z","EPOCH":"2026-03-29T04:02:50.726688","MEAN_MOTION":15.30214746,"ECCENTRICITY":0.0001155,"INCLINATION":53.1577,"RA_OF_ASC_NODE":139.3,"ARG_OF_PERICENTER":73.4678,"MEAN_ANOMALY":286.6449,"EPHEMERIS_TYPE":0,"CLASSIFICATION_TYPE":"U","NORAD_CAT_ID":66229,"ELEMENT_SET_NO":999,"REV_AT_EPOCH":2464,"BSTAR":0.0010866,"MEAN_MOTION_DOT":0.00031975,"MEAN_MOTION_DDOT":0},{"OBJECT_NAME":"STARLINK-35736","OBJECT_ID":"2025-244AA","EPOCH":"2026-03-28T20:36:53.656704","MEAN_MOTION":15.3021089,"ECCENTRICITY":0.00014816,"INCLINATION":53.1608,"RA_OF_ASC_NODE":140.9199,"ARG_OF_PERICENTER":86.499,"MEAN_ANOMALY":273.618,"EPHEMERIS_TYPE":0,"CLASSIFICATION_TYPE":"U","NORAD_CAT_ID":66230,"ELEMENT_SET_NO":999,"REV_AT_EPOCH":2459,"BSTAR":0.00074190317,"MEAN_MOTION_DOT":0.00021685,"MEAN_MOTION_DDOT":0},{"OBJECT_NAME":"STARLINK-35735","OBJECT_ID":"2025-244AB","EPOCH":"2026-03-29T03:53:43.579680","MEAN_MOTION":15.30219261,"ECCENTRICITY":0.0001855,"INCLINATION":53.1575,"RA_OF_ASC_NODE":139.2605,"ARG_OF_PERICENTER":91.2476,"MEAN_ANOMALY":268.8737,"EPHEMERIS_TYPE":0,"CLASSIFICATION_TYPE":"U","NORAD_CAT_ID":66231,"ELEMENT_SET_NO":999,"REV_AT_EPOCH":2464,"BSTAR":0.0011785,"MEAN_MOTION_DOT":0.00034729,"MEAN_MOTION_DDOT":0},{"OBJECT_NAME":"STARLINK-35753","OBJECT_ID":"2025-244AC","EPOCH":"2026-03-28T13:24:36.241920","MEAN_MOTION":15.30177268,"ECCENTRICITY":0.0001308,"INCLINATION":53.1594,"RA_OF_ASC_NODE":142.6042,"ARG_OF_PERICENTER":81.3966,"MEAN_ANOMALY":278.7183,"EPHEMERIS_TYPE":0,"CLASSIFICATION_TYPE":"U","NORAD_CAT_ID":66232,"ELEMENT_SET_NO":999,"REV_AT_EPOCH":2454,"BSTAR":0.00096297,"MEAN_MOTION_DOT":0.0002825,"MEAN_MOTION_DDOT":0},{"OBJECT_NAME":"STARLINK-35626","OBJECT_ID":"2025-244AD","EPOCH":"2026-03-29T03:26:32.264736","MEAN_MOTION":15.30214398,"ECCENTRICITY":0.0001732,"INCLINATION":53.1595,"RA_OF_ASC_NODE":139.8515,"ARG_OF_PERICENTER":94.6088,"MEAN_ANOMALY":265.511,"EPHEMERIS_TYPE":0,"CLASSIFICATION_TYPE":"U","NORAD_CAT_ID":66233,"ELEMENT_SET_NO":999,"REV_AT_EPOCH":2463,"BSTAR":0.0011979,"MEAN_MOTION_DOT":0.00035303,"MEAN_MOTION_DDOT":0}]
